[{"OBJECT_NAME":"STARLINK-1556","OBJECT_ID":"2020-055G","EPOCH":"2026-03-10T00:00:02.999808","MEAN_MOTION":15.19594502,"ECCENTRICITY":0.00019373,"INCLINATION":53.1095,"RA_OF_ASC_NODE":124.8078,"ARG_OF_PERICENTER":90.9986,"MEAN_ANOMALY":131.2843,"EPHEMERIS_TYPE":0,"CLASSIFICATION_TYPE":"U","NORAD_CAT_ID":46033,"ELEMENT_SET_NO":999,"REV_AT_EPOCH":574,"BSTAR":0.005702776,"MEAN_MOTION_DOT":0.0012472,"MEAN_MOTION_DDOT":0},{"OBJECT_NAME":"CO3D 2","OBJECT_ID":"2025-156D","EPOCH":"2026-03-09T21:26:54.125664","MEAN_MOTION":15.20209232,"ECCENTRICITY":0.00014107,"INCLINATION":97.4323,"RA_OF_ASC_NODE":148.9107,"ARG_OF_PERICENTER":117.4238,"MEAN_ANOMALY":242.7141,"EPHEMERIS_TYPE":0,"CLASSIFICATION_TYPE":"U","NORAD_CAT_ID":64902,"ELEMENT_SET_NO":999,"REV_AT_EPOCH":3444,"BSTAR":0.00024862852,"MEAN_MOTION_DOT":5.32e-5,"MEAN_MOTION_DDOT":0}]
